[{"OBJECT_NAME":"STARLINK-33943","OBJECT_ID":"2025-094W","EPOCH":"2026-03-09T20:43:22.907712","MEAN_MOTION":14.98344036,"ECCENTRICITY":0.00031311,"INCLINATION":70.0014,"RA_OF_ASC_NODE":233.8376,"ARG_OF_PERICENTER":269.1852,"MEAN_ANOMALY":90.8948,"EPHEMERIS_TYPE":0,"CLASSIFICATION_TYPE":"U","NORAD_CAT_ID":63884,"ELEMENT_SET_NO":999,"REV_AT_EPOCH":4723,"BSTAR":0.001076013,"MEAN_MOTION_DOT":0.00012774,"MEAN_MOTION_DDOT":0},{"OBJECT_NAME":"COSMOS 2251 DEB","OBJECT_ID":"1993-036BRU","EPOCH":"2026-02-21T14:09:45.153216","MEAN_MOTION":14.99001579,"ECCENTRICITY":0.0017259,"INCLINATION":74.0061,"RA_OF_ASC_NODE":146.9269,"ARG_OF_PERICENTER":277.3195,"MEAN_ANOMALY":147.2685,"EPHEMERIS_TYPE":0,"CLASSIFICATION_TYPE":"U","NORAD_CAT_ID":38062,"ELEMENT_SET_NO":999,"REV_AT_EPOCH":64090,"BSTAR":0.0019091,"MEAN_MOTION_DOT":0.00023247,"MEAN_MOTION_DDOT":0}]
